{"fetched_at":"2026-04-01T16:59:04Z","count":11445,"tles":[{"name":"2026-066A","line1":"1 68412U 26066A   26090.86061244  .00027820  00000+0  49494-3 0  9990","line2":"2 68412  84.9606 276.9718 0206090 144.2419 217.2835 15.29824820   221","category":"Other"}]}